OBJECT_NAME,OBJECT_ID,EPOCH,MEAN_MOTION,ECCENTRICITY,INCLINATION,RA_OF_ASC_NODE,ARG_OF_PERICENTER,MEAN_ANOMALY,EPHEMERIS_TYPE,CLASSIFICATION_TYPE,NORAD_CAT_ID,ELEMENT_SET_NO,REV_AT_EPOCH,BSTAR,MEAN_MOTION_DOT,MEAN_MOTION_DDOT
SES-21,2022-123B,2026-06-15T12:26:18.248064,1.00269953,.00009414,0.0265,28.0199,59.0670,232.2813,0,U,53961,999,719,0,.72E-6,0
GALAXY 33 (G-33),2022-128A,2026-06-15T15:51:05.311296,1.00271448,.00015835,0.0127,0.5959,86.4230,281.6990,0,U,54026,999,1372,0,.81E-6,0
GALAXY 34 (G-34),2022-128B,2026-06-15T12:26:48.200352,1.00271904,.00013101,0.0129,6.0107,96.4818,219.0064,0,U,54027,999,1389,0,.61E-6,0
ANGOSAT 2,2022-131A,2026-06-15T23:26:41.428032,1.00271261,.00006973,0.0265,76.5125,36.9762,165.4352,0,U,54033,999,1346,0,.136E-5,0
EUTELSAT HOTBIRD 13F,2022-134A,2026-06-15T13:07:14.323584,1.00270937,.00022445,0.0519,292.7335,60.0843,120.8350,0,U,54048,999,1336,0,.89E-6,0
LDPE-2,2022-144A,2026-06-15T15:09:04.250016,1.00531388,.00018219,5.6096,63.6649,105.3230,163.2453,0,U,54219,999,1182,0,.128E-5,0
EUTELSAT HOTBIRD 13G,2022-146A,2026-06-15T13:07:14.323584,1.00269766,.00017055,0.0509,232.5107,316.5388,284.5981,0,U,54225,999,745,0,.89E-6,0
ZHONGXING-19,2022-148A,2026-06-15T22:23:26.663136,1.00270345,.00022744,0.0234,13.2426,98.0341,291.9888,0,U,54230,999,1336,0,0,0
GALAXY 31 (G-31),2022-153A,2026-06-15T15:54:27.488160,1.00270772,.00010088,0.0192,52.9107,23.0812,305.5543,0,U,54243,999,711,0,.15E-6,0
GALAXY 32 (G-32),2022-153B,2026-06-14T22:56:24.476640,1.00491998,.0015287,0.0165,349.6788,254.3091,272.5395,0,U,54244,999,1312,0,-.197E-5,0
EUTELSAT 10B,2022-157A,2026-06-15T21:39:47.879136,1.00266568,.00011711,0.0630,99.4039,11.6137,128.1207,0,U,54259,999,1301,0,.68E-6,0
GALAXY 35 (G-35),2022-170A,2026-06-15T19:27:46.132704,1.00268797,.00017963,0.0192,20.5203,66.0766,16.3275,0,U,54741,999,1288,0,0,0
GALAXY 36 (G-36),2022-170B,2026-06-15T12:38:17.100384,1.00271115,.00025271,0.0222,252.0006,192.5442,279.8404,0,U,54742,999,1275,0,-.183E-5,0
METEOSAT-12 (MTG-I1),2022-170C,2026-06-15T19:04:38.646336,1.00272279,.00031359,0.7369,22.7417,71.7352,95.3415,0,U,54743,999,1296,0,-.7E-7,0
SHIJIAN-23 (SJ-23),2023-002A,2026-06-15T17:48:06.069024,1.00087863,.0003808,3.7140,78.3309,271.7919,329.9907,0,U,55131,999,1249,0,-.244E-5,0
APSTAR-6E,2023-005A,2026-06-15T17:07:09.418944,1.00268070,.00011143,0.0372,251.5524,313.0083,90.2366,0,U,55239,999,1867,0,-.316E-5,0
USA 342,2023-008A,2026-06-12T15:01:23.172096,1.00272733,.0000206,0.0059,338.0459,258.5222,273.5711,0,U,55263,999,1247,0,0,0
LDPE-3A,2023-008B,2026-06-15T14:36:53.661024,0.99144654,.00010792,2.3439,81.6823,65.8432,232.9592,0,U,55264,999,1179,0,.26E-6,0
ELEKTRO-L 4,2023-016A,2026-06-15T19:20:26.043072,1.00270696,.00007571,0.0736,165.9681,8.1916,185.8376,0,U,55506,999,1231,0,-.57E-6,0
AMAZONAS NEXUS,2023-017A,2026-06-15T12:46:16.334400,1.00267577,.00049166,0.0383,35.9590,30.4729,327.9525,0,U,55508,999,702,0,-.28E-5,0
ZHONGXING-26,2023-023A,2026-06-14T20:32:45.769056,1.00274575,.00033298,0.0684,71.1916,17.1102,248.1584,0,U,55686,999,1220,0,-.348E-5,0
LUCH-5X (OLYMP-K 2),2023-031A,2026-06-15T09:55:57.065952,1.00271794,.0000623,0.0284,59.9062,161.0098,253.7534,0,U,55841,999,1192,0,.36E-6,0
GAOFEN-13 02,2023-036A,2026-06-15T22:19:12.069984,1.00270626,.00041466,1.0205,0.9976,335.2263,51.0832,0,U,55912,999,1208,0,-.218E-5,0
SES-18,2023-038A,2026-06-14T22:52:54.812352,1.00270931,.00002588,0.0148,303.3095,342.6198,217.4462,0,U,55970,999,1208,0,-.96E-6,0
SES-19,2023-038B,2026-06-15T15:50:27.870720,1.00270800,.00013613,0.0106,346.5213,94.2524,285.8823,0,U,55971,999,1207,0,.9E-6,0
INTELSAT 40E (IS-40E),2023-052A,2026-06-15T09:12:23.741568,1.00269497,.00019311,0.0182,12.4035,113.0025,185.3673,0,U,56174,999,1180,0,0,0
VIASAT-3 F1,2023-060A,2026-06-15T07:30:21.690720,1.00270502,.00010072,0.0244,339.9973,93.6302,213.5951,0,U,56370,999,1141,0,0,0
ARCTURUS,2023-060B,2026-06-15T23:19:38.252928,1.00272343,.0002527,2.7725,79.9676,48.6825,198.0009,0,U,56371,999,1144,0,-.64E-6,0
GS-1,2023-060C,2026-06-14T21:58:38.193312,1.00275284,.0003785,2.7203,79.8626,282.6047,319.7725,0,U,56372,999,751,0,-.221E-5,0
BEIDOU-3 G4,2023-066A,2026-06-15T22:16:49.796832,1.00274047,.00042998,0.4881,331.1818,181.7389,225.5103,0,U,56564,999,1138,0,-.28E-5,0
ARABSAT-7B (BADR-8),2023-075A,2026-06-15T04:37:42.665952,1.00270389,.00043798,0.0785,30.3075,352.7494,335.8524,0,U,56757,999,1109,0,.148E-5,0
NVS-01 (IRNSS-1J),2023-076A,2026-06-15T20:31:12.429408,1.00265265,.00032003,2.1690,244.4115,36.3668,60.6354,0,U,56759,999,1110,0,-.334E-5,0
